CCSDS_OMM_VERS = 2.0
CREATION_DATE  = 
ORIGINATOR     = 

OBJECT_NAME    = STARLINK-35930
OBJECT_ID      = 2025-270M
CENTER_NAME    = EARTH
REF_FRAME      = TEME
TIME_SYSTEM    = UTC
MEAN_ELEMENT_THEORY = SGP/SGP4

EPOCH          = 2025-12-26T00:00:02.000160
MEAN_MOTION    = 15.40693318
ECCENTRICITY   = .00015392
INCLINATION    = 43.0004
RA_OF_ASC_NODE = 115.6507
ARG_OF_PERICENTER = 265.9181
MEAN_ANOMALY   = 240.5300

EPHEMERIS_TYPE = 0
CLASSIFICATION_TYPE = U
NORAD_CAT_ID   = 66599
ELEMENT_SET_NO = 999
REV_AT_EPOCH   = 603
BSTAR          = -.68887992E-4
MEAN_MOTION_DOT = -.3179E-4
MEAN_MOTION_DDOT = 0

CCSDS_OMM_VERS = 2.0
CREATION_DATE  = 
ORIGINATOR     = 

OBJECT_NAME    = STARLINK-35980
OBJECT_ID      = 2025-270N
CENTER_NAME    = EARTH
REF_FRAME      = TEME
TIME_SYSTEM    = UTC
MEAN_ELEMENT_THEORY = SGP/SGP4

EPOCH          = 2025-12-25T17:31:15.223584
MEAN_MOTION    = 15.40740170
ECCENTRICITY   = .00012039
INCLINATION    = 43.0006
RA_OF_ASC_NODE = 117.4177
ARG_OF_PERICENTER = 6.8495
MEAN_ANOMALY   = 353.2378

EPHEMERIS_TYPE = 0
CLASSIFICATION_TYPE = U
NORAD_CAT_ID   = 66600
ELEMENT_SET_NO = 999
REV_AT_EPOCH   = 625
BSTAR          = .10972155E-2
MEAN_MOTION_DOT = .45867E-3
MEAN_MOTION_DDOT = 0

CCSDS_OMM_VERS = 2.0
CREATION_DATE  = 
ORIGINATOR     = 

OBJECT_NAME    = STARLINK-35978
OBJECT_ID      = 2025-270P
CENTER_NAME    = EARTH
REF_FRAME      = TEME
TIME_SYSTEM    = UTC
MEAN_ELEMENT_THEORY = SGP/SGP4

EPOCH          = 2025-12-25T14:50:20.458176
MEAN_MOTION    = 15.40695695
ECCENTRICITY   = .0001748
INCLINATION    = 43.0008
RA_OF_ASC_NODE = 118.3029
ARG_OF_PERICENTER = 278.7511
MEAN_ANOMALY   = 81.3147

EPHEMERIS_TYPE = 0
CLASSIFICATION_TYPE = U
NORAD_CAT_ID   = 66601
ELEMENT_SET_NO = 999
REV_AT_EPOCH   = 617
BSTAR          = .16425E-2
MEAN_MOTION_DOT = .68921E-3
MEAN_MOTION_DDOT = 0

CCSDS_OMM_VERS = 2.0
CREATION_DATE  = 
ORIGINATOR     = 

OBJECT_NAME    = STARLINK-36050
OBJECT_ID      = 2025-270Q
CENTER_NAME    = EARTH
REF_FRAME      = TEME
TIME_SYSTEM    = UTC
MEAN_ELEMENT_THEORY = SGP/SGP4

EPOCH          = 2025-12-25T16:43:02.809920
MEAN_MOTION    = 15.40700977
ECCENTRICITY   = .0001645
INCLINATION    = 43.0015
RA_OF_ASC_NODE = 118.0318
ARG_OF_PERICENTER = 265.3837
MEAN_ANOMALY   = 94.6831

EPHEMERIS_TYPE = 0
CLASSIFICATION_TYPE = U
NORAD_CAT_ID   = 66602
ELEMENT_SET_NO = 999
REV_AT_EPOCH   = 624
BSTAR          = .14070321E-2
MEAN_MOTION_DOT = .58929E-3
MEAN_MOTION_DDOT = 0

CCSDS_OMM_VERS = 2.0
CREATION_DATE  = 
ORIGINATOR     = 

OBJECT_NAME    = STARLINK-36048
OBJECT_ID      = 2025-270R
CENTER_NAME    = EARTH
REF_FRAME      = TEME
TIME_SYSTEM    = UTC
MEAN_ELEMENT_THEORY = SGP/SGP4

EPOCH          = 2025-12-25T17:47:22.397280
MEAN_MOTION    = 15.40700438
ECCENTRICITY   = .0001458
INCLINATION    = 42.9995
RA_OF_ASC_NODE = 117.5035
ARG_OF_PERICENTER = 277.8651
MEAN_ANOMALY   = 82.2040

EPHEMERIS_TYPE = 0
CLASSIFICATION_TYPE = U
NORAD_CAT_ID   = 66603
ELEMENT_SET_NO = 999
REV_AT_EPOCH   = 625
BSTAR          = .12828673E-2
MEAN_MOTION_DOT = .53664E-3
MEAN_MOTION_DDOT = 0

CCSDS_OMM_VERS = 2.0
CREATION_DATE  = 
ORIGINATOR     = 

OBJECT_NAME    = STARLINK-35977
OBJECT_ID      = 2025-270S
CENTER_NAME    = EARTH
REF_FRAME      = TEME
TIME_SYSTEM    = UTC
MEAN_ELEMENT_THEORY = SGP/SGP4

EPOCH          = 2025-12-25T14:34:12.556128
MEAN_MOTION    = 15.40692827
ECCENTRICITY   = .0001025
INCLINATION    = 43.0004
RA_OF_ASC_NODE = 118.2151
ARG_OF_PERICENTER = 242.8510
MEAN_ANOMALY   = 117.2242

EPHEMERIS_TYPE = 0
CLASSIFICATION_TYPE = U
NORAD_CAT_ID   = 66604
ELEMENT_SET_NO = 999
REV_AT_EPOCH   = 633
BSTAR          = .10442E-2
MEAN_MOTION_DOT = .43554E-3
MEAN_MOTION_DDOT = 0

CCSDS_OMM_VERS = 2.0
CREATION_DATE  = 
ORIGINATOR     = 

OBJECT_NAME    = STARLINK-36052
OBJECT_ID      = 2025-270T
CENTER_NAME    = EARTH
REF_FRAME      = TEME
TIME_SYSTEM    = UTC
MEAN_ELEMENT_THEORY = SGP/SGP4

EPOCH          = 2025-12-25T17:21:34.257024
MEAN_MOTION    = 15.40746331
ECCENTRICITY   = .00004705
INCLINATION    = 42.9964
RA_OF_ASC_NODE = 117.3649
ARG_OF_PERICENTER = 297.8013
MEAN_ANOMALY   = 62.2795

EPHEMERIS_TYPE = 0
CLASSIFICATION_TYPE = U
NORAD_CAT_ID   = 66605
ELEMENT_SET_NO = 999
REV_AT_EPOCH   = 635
BSTAR          = .13972926E-2
MEAN_MOTION_DOT = .58604E-3
MEAN_MOTION_DDOT = 0

CCSDS_OMM_VERS = 2.0
CREATION_DATE  = 
ORIGINATOR     = 

OBJECT_NAME    = STARLINK-36063
OBJECT_ID      = 2025-270U
CENTER_NAME    = EARTH
REF_FRAME      = TEME
TIME_SYSTEM    = UTC
MEAN_ELEMENT_THEORY = SGP/SGP4

EPOCH          = 2025-12-26T00:00:02.000160
MEAN_MOTION    = 15.40690142
ECCENTRICITY   = .00015611
INCLINATION    = 43.0003
RA_OF_ASC_NODE = 115.5581
ARG_OF_PERICENTER = 275.4953
MEAN_ANOMALY   = 268.2775

EPHEMERIS_TYPE = 0
CLASSIFICATION_TYPE = U
NORAD_CAT_ID   = 66606
ELEMENT_SET_NO = 999
REV_AT_EPOCH   = 604
BSTAR          = -.97090943E-4
MEAN_MOTION_DOT = -.4356E-4
MEAN_MOTION_DDOT = 0

CCSDS_OMM_VERS = 2.0
CREATION_DATE  = 
ORIGINATOR     = 

OBJECT_NAME    = STARLINK-35993
OBJECT_ID      = 2025-270V
CENTER_NAME    = EARTH
REF_FRAME      = TEME
TIME_SYSTEM    = UTC
MEAN_ELEMENT_THEORY = SGP/SGP4

EPOCH          = 2025-12-25T17:18:19.288512
MEAN_MOTION    = 15.40741183
ECCENTRICITY   = .00016255
INCLINATION    = 43.0008
RA_OF_ASC_NODE = 117.3464
ARG_OF_PERICENTER = 249.0774
MEAN_ANOMALY   = 110.9909

EPHEMERIS_TYPE = 0
CLASSIFICATION_TYPE = U
NORAD_CAT_ID   = 66607
ELEMENT_SET_NO = 999
REV_AT_EPOCH   = 625
BSTAR          = .1395574E-2
MEAN_MOTION_DOT = .58522E-3
MEAN_MOTION_DDOT = 0

CCSDS_OMM_VERS = 2.0
CREATION_DATE  = 
ORIGINATOR     = 

OBJECT_NAME    = STARLINK-36036
OBJECT_ID      = 2025-270W
CENTER_NAME    = EARTH
REF_FRAME      = TEME
TIME_SYSTEM    = UTC
MEAN_ELEMENT_THEORY = SGP/SGP4

EPOCH          = 2025-12-26T00:00:02.000160
MEAN_MOTION    = 15.40691202
ECCENTRICITY   = .00015514
INCLINATION    = 43.0003
RA_OF_ASC_NODE = 115.5277
ARG_OF_PERICENTER = 272.8529
MEAN_ANOMALY   = 283.3616

EPHEMERIS_TYPE = 0
CLASSIFICATION_TYPE = U
NORAD_CAT_ID   = 66608
ELEMENT_SET_NO = 999
REV_AT_EPOCH   = 604
BSTAR          = -.15885025E-3
MEAN_MOTION_DOT = -.6931E-4
MEAN_MOTION_DDOT = 0

CCSDS_OMM_VERS = 2.0
CREATION_DATE  = 
ORIGINATOR     = 

OBJECT_NAME    = STARLINK-36034
OBJECT_ID      = 2025-270X
CENTER_NAME    = EARTH
REF_FRAME      = TEME
TIME_SYSTEM    = UTC
MEAN_ELEMENT_THEORY = SGP/SGP4

EPOCH          = 2025-12-26T00:00:02.000160
MEAN_MOTION    = 15.40697760
ECCENTRICITY   = .00015654
INCLINATION    = 43.0001
RA_OF_ASC_NODE = 115.4677
ARG_OF_PERICENTER = 269.7362
MEAN_ANOMALY   = 311.3446

EPHEMERIS_TYPE = 0
CLASSIFICATION_TYPE = U
NORAD_CAT_ID   = 66609
ELEMENT_SET_NO = 999
REV_AT_EPOCH   = 612
BSTAR          = -.17145472E-3
MEAN_MOTION_DOT = -.7458E-4
MEAN_MOTION_DDOT = 0

CCSDS_OMM_VERS = 2.0
CREATION_DATE  = 
ORIGINATOR     = 

OBJECT_NAME    = STARLINK-35680
OBJECT_ID      = 2025-270Y
CENTER_NAME    = EARTH
REF_FRAME      = TEME
TIME_SYSTEM    = UTC
MEAN_ELEMENT_THEORY = SGP/SGP4

EPOCH          = 2025-12-26T00:00:02.000160
MEAN_MOTION    = 15.40693056
ECCENTRICITY   = .00016828
INCLINATION    = 43.0004
RA_OF_ASC_NODE = 115.6787
ARG_OF_PERICENTER = 271.0241
MEAN_ANOMALY   = 222.9844

EPHEMERIS_TYPE = 0
CLASSIFICATION_TYPE = U
NORAD_CAT_ID   = 66610
ELEMENT_SET_NO = 999
REV_AT_EPOCH   = 604
BSTAR          = -.55230476E-4
MEAN_MOTION_DOT = -.2609E-4
MEAN_MOTION_DDOT = 0

CCSDS_OMM_VERS = 2.0
CREATION_DATE  = 
ORIGINATOR     = 

OBJECT_NAME    = STARLINK-35583
OBJECT_ID      = 2025-270Z
CENTER_NAME    = EARTH
REF_FRAME      = TEME
TIME_SYSTEM    = UTC
MEAN_ELEMENT_THEORY = SGP/SGP4

EPOCH          = 2025-12-25T17:05:26.222784
MEAN_MOTION    = 15.40757863
ECCENTRICITY   = .00006595
INCLINATION    = 43.0004
RA_OF_ASC_NODE = 117.2753
ARG_OF_PERICENTER = 326.6033
MEAN_ANOMALY   = 33.4782

EPHEMERIS_TYPE = 0
CLASSIFICATION_TYPE = U
NORAD_CAT_ID   = 66611
ELEMENT_SET_NO = 999
REV_AT_EPOCH   = 646
BSTAR          = .1409315E-2
MEAN_MOTION_DOT = .59138E-3
MEAN_MOTION_DDOT = 0

CCSDS_OMM_VERS = 2.0
CREATION_DATE  = 
ORIGINATOR     = 

OBJECT_NAME    = STARLINK-36039
OBJECT_ID      = 2025-270AA
CENTER_NAME    = EARTH
REF_FRAME      = TEME
TIME_SYSTEM    = UTC
MEAN_ELEMENT_THEORY = SGP/SGP4

EPOCH          = 2025-12-25T01:03:04.009824
MEAN_MOTION    = 15.40706418
ECCENTRICITY   = .00011468
INCLINATION    = 42.9994
RA_OF_ASC_NODE = 121.7330
ARG_OF_PERICENTER = 270.7369
MEAN_ANOMALY   = 89.3356

EPHEMERIS_TYPE = 0
CLASSIFICATION_TYPE = U
NORAD_CAT_ID   = 66612
ELEMENT_SET_NO = 999
REV_AT_EPOCH   = 624
BSTAR          = .10340794E-2
MEAN_MOTION_DOT = .43146E-3
MEAN_MOTION_DDOT = 0

CCSDS_OMM_VERS = 2.0
CREATION_DATE  = 
ORIGINATOR     = 

OBJECT_NAME    = STARLINK-36037
OBJECT_ID      = 2025-270AB
CENTER_NAME    = EARTH
REF_FRAME      = TEME
TIME_SYSTEM    = UTC
MEAN_ELEMENT_THEORY = SGP/SGP4

EPOCH          = 2025-12-25T08:43:22.456704
MEAN_MOTION    = 15.40747703
ECCENTRICITY   = .0000347
INCLINATION    = 42.9973
RA_OF_ASC_NODE = 119.8307
ARG_OF_PERICENTER = 326.0918
MEAN_ANOMALY   = 33.9916

EPHEMERIS_TYPE = 0
CLASSIFICATION_TYPE = U
NORAD_CAT_ID   = 66613
ELEMENT_SET_NO = 999
REV_AT_EPOCH   = 629
BSTAR          = .97518E-3
MEAN_MOTION_DOT = .40714E-3
MEAN_MOTION_DDOT = 0

